{
    "links": {
        "self": "http://www.neowsapp.com/rest/v1/neo/3781830?api_key=iIulBulltgU6a56xZRHN4H3l9WmuAYTsLGpBGhQ2"
    },
    "id": "3781830",
    "neo_reference_id": "3781830",
    "name": "(2017 RV17)",
    "designation": "2017 RV17",
    "nasa_jpl_url": "http://ssd.jpl.nasa.gov/sbdb.cgi?sstr=3781830",
    "absolute_magnitude_h": 22.6,
    "estimated_diameter": {
        "kilometers": {
            "estimated_diameter_min": 0.0802703167,
            "estimated_diameter_max": 0.1794898848
        },
        "meters": {
            "estimated_diameter_min": 80.2703167283,
            "estimated_diameter_max": 179.4898847799
        },
        "miles": {
            "estimated_diameter_min": 0.049877647,
            "estimated_diameter_max": 0.1115298092
        },
        "feet": {
            "estimated_diameter_min": 263.3540659348,
            "estimated_diameter_max": 588.8775935812
        }
    },
    "is_potentially_hazardous_asteroid": false,
    "close_approach_data": [
        {
            "close_approach_date": "2017-09-17",
            "close_approach_date_full": "2017-Sep-17 07:01",
            "epoch_date_close_approach": 1505631660000,
            "relative_velocity": {
                "kilometers_per_second": "18.6213124751",
                "kilometers_per_hour": "67036.7249104694",
                "miles_per_hour": "41654.0138756192"
            },
            "miss_distance": {
                "astronomical": "0.0059648973",
                "lunar": "2.3203450497",
                "kilometers": "892335.930848751",
                "miles": "554471.8362287238"
            },
            "orbiting_body": "Earth"
        },
        {
            "close_approach_date": "2017-09-17",
            "close_approach_date_full": "2017-Sep-17 08:22",
            "epoch_date_close_approach": 1505636520000,
            "relative_velocity": {
                "kilometers_per_second": "18.461369755",
                "kilometers_per_hour": "66460.9311178715",
                "miles_per_hour": "41296.2380048796"
            },
            "miss_distance": {
                "astronomical": "0.0036042781",
                "lunar": "1.4020641809",
                "kilometers": "539192.326647647",
                "miles": "335038.5758336486"
            },
            "orbiting_body": "Moon"
        },
        {
            "close_approach_date": "2018-02-19",
            "close_approach_date_full": "2018-Feb-19 13:55",
            "epoch_date_close_approach": 1519048500000,
            "relative_velocity": {
                "kilometers_per_second": "16.2392589697",
                "kilometers_per_hour": "58461.3322910942",
                "miles_per_hour": "36325.5983894302"
            },
            "miss_distance": {
                "astronomical": "0.4814481614",
                "lunar": "187.2833347846",
                "kilometers": "72023619.460856218",
                "miles": "44753401.8901550884"
            },
            "orbiting_body": "Earth"
        }
    ],
    "orbital_data": {
        "orbit_id": "2",
        "orbit_determination_date": "2019-12-21 06:02:37",
        "first_observation_date": "2017-09-14",
        "last_observation_date": "2017-09-16",
        "data_arc_in_days": 2,
        "observations_used": 60,
        "orbit_uncertainty": "7",
        "minimum_orbit_intersection": ".00439893",
        "jupiter_tisserand_invariant": "4.576",
        "epoch_osculation": "2459000.5",
        "eccentricity": ".3331113635416685",
        "semi_major_axis": "1.387309746894881",
        "inclination": "32.00323874595613",
        "ascending_node_longitude": "174.61628582401",
        "orbital_period": "596.8409090422928",
        "perihelion_distance": ".9251811054520803",
        "perihelion_argument": "225.444205163901",
        "aphelion_distance": "1.849438388337682",
        "perihelion_time": "2459245.064315098250",
        "mean_anomaly": "212.4847206324269",
        "mean_motion": ".603175812089801",
        "equinox": "J2000",
        "orbit_class": {
            "orbit_class_type": "APO",
            "orbit_class_description": "Near-Earth asteroid orbits which cross the Earth’s orbit similar to that of 1862 Apollo",
            "orbit_class_range": "a (semi-major axis) > 1.0 AU; q (perihelion) < 1.017 AU"
        }
    },
    "is_sentry_object": false
}